GLOBALSTAR M045         
1 25676U 99019A   25326.94565719 -.00000050  00000+0  38527-3 0  9991
2 25676  51.9955 212.7717 0001003  81.6075 349.1832 12.27068651212889
GLOBALSTAR M019         
1 25677U 99019B   25327.27751289 -.00000193  00000+0 -10769-2 0  9994
2 25677  51.9903 353.3868 0001099 277.8039 178.1217 12.13878345204462
GLOBALSTAR M044         
1 25678U 99019C   25327.32890531 -.00000075  00000+0  11386-3 0  9990
2 25678  51.9989 324.5132 0006254 347.7869 117.9712 11.90259788190279
GLOBALSTAR M042         
1 25679U 99019D   25327.41232972 -.00000041  00000+0  48159-3 0  9991
2 25679  52.0031 321.4544 0002847 270.7393 255.6131 12.22091598204724
GLOBALSTAR M025         
1 25770U 99031A   25327.79375720 -.00000078  00000+0 -31502-3 0  9992
2 25770  51.9770 149.5299 0003170  65.0137  31.4241 11.22558530499632
GLOBALSTAR M049         
1 25771U 99031B   25326.89985967  .00000012  00000+0  26910-2 0  9995
2 25771  51.9845 194.3419 0001991 301.8978  58.1624 11.12122889135081
GLOBALSTAR M047         
1 25772U 99031C   25327.72102757 -.00000066  00000+0  10655-3 0  9997
2 25772  51.9792 174.2074 0016335 172.2567 187.8493 11.31931552489171
GLOBALSTAR M052         
1 25773U 99031D   25327.36893168 -.00000095  00000+0 -98264-3 0  9996
2 25773  51.9882 299.7132 0002882  68.6793  83.4444 11.15061944496267
